IRIDIUM 38              
1 25043U 97069E   24282.87898231  .00002036  00000+0  67283-3 0  9998
2 25043  86.3988 338.9083 0002349 143.0941 217.0419 14.37592893409842
IRIDIUM 42              
1 25077U 97077A   24282.71897039  .00002977  00000+0  10213-2 0  9996
2 25077  86.4001 344.8315 0001833 112.0355 248.1036 14.35871844405101
IRIDIUM 44              
1 25078U 97077B   24282.86297001  .00002018  00000+0  63874-3 0  9994
2 25078  86.3963 327.3728 0003834 111.8514 248.3093 14.39711077407538
IRIDIUM 45              
1 25104U 97082A   24283.18061219  .00038383  00000+0  18732-2 0  9992
2 25104  86.3673 168.5217 0144885 182.2212 177.8402 15.09266596414260
IRIDIUM 24              
1 25105U 97082B   24282.80951077  .00002516  00000+0  76824-3 0  9997
2 25105  86.3979 186.8027 0011097 176.8105 183.3168 14.41544642406998
IRIDIUM 51              
1 25262U 98018A   24283.15343338  .00057697  00000+0  22107-2 0  9999
2 25262  86.3977 177.9886 0131025 119.5450 241.8930 15.18574431408886
